ALOS (DAICHI)           
1 28931U 06002A   25351.73419158  .00001110  00000+0  19545-3 0  9994
2 28931  98.1098 303.1864 0001361 113.5739 246.5610 14.69501788 61443
H-2A R/B                
1 28932U 06002B   25356.36446388  .00010415  00000+0  54470-3 0  9998
2 28932  98.2323 131.9005 0054850 143.7689 216.7276 15.14751642 82728
RESURS-DK 1             
1 29228U 06021A   25356.48802036  .00002606  00000+0  15666-3 0  9994
2 29228  69.9337  76.6450 0006866 250.3556 109.6869 15.12211490 75852
CZ-4B R/B               
1 29507U 06046C   25356.07634972  .00005174  00000+0  26939-3 0  9996
2 29507  97.5716  36.1893 0034057 173.9689 186.1961 15.15958131 48285
CZ-2C R/B               
1 31114U 07010B   25356.30025583  .00000139  00000+0  82869-4 0  9994
2 31114  98.3976 108.4699 0059505 158.2511 202.1213 14.20213564968730
COSMO-SKYMED 1          
1 31598U 07023A   25356.55486144  .00003278  00000+0  29879-3 0  9993
2 31598  97.8839 182.0189 0001479  80.7613 279.3775 14.95837267  3372
COSMOS 2428             
1 31792U 07029A   25356.43766246  .00000192  00000+0  12909-3 0  9994
2 31792  70.9366   5.5178 0004225   9.9266 350.1937 14.12893580953181
SL-16 R/B               
1 31793U 07029B   25356.37819657  .00000270  00000+0  16459-3 0  9994
2 31793  70.9760 334.8962 0001889 263.0492 259.9340 14.14817287954431
KORONAS-FOTON           
1 33504U 09003A   25356.42791098  .00011031  00000+0  26250-3 0  9991
2 33504  82.4309 356.0648 0013380  78.3070 281.9677 15.41379476933838
CZ-2C R/B               
1 37731U 11030B   25356.40252389  .00001279  00000+0  16863-3 0  9995
2 37731  97.8429 310.2960 0051422 241.2568 241.5759 14.80930441778655
H-2A R/B                
1 38341U 12025E   25356.48193664  .00002902  00000+0  26992-3 0  9994
2 38341  98.4610 312.4635 0044413 203.7372 156.1798 14.94502428736689
SHIJIAN-16 (SJ-16)      
1 39358U 13057A   25356.59341711  .00000811  00000+0  82694-4 0  9998
2 39358  74.9733 331.0093 0017915 296.8806  63.0550 14.92007608660002
